[{"OBJECT_NAME":"OBJECT D","OBJECT_ID":"2024-174D","EPOCH":"2026-03-10T00:15:10.483200","MEAN_MOTION":15.28039787,"ECCENTRICITY":0.00110644,"INCLINATION":97.4441,"RA_OF_ASC_NODE":80.4677,"ARG_OF_PERICENTER":212.9968,"MEAN_ANOMALY":147.0582,"EPHEMERIS_TYPE":0,"CLASSIFICATION_TYPE":"U","NORAD_CAT_ID":61241,"ELEMENT_SET_NO":999,"REV_AT_EPOCH":8076,"BSTAR":0.00036340099,"MEAN_MOTION_DOT":9.884e-5,"MEAN_MOTION_DDOT":0},{"OBJECT_NAME":"STARLINK-32744","OBJECT_ID":"2025-003Y","EPOCH":"2026-03-09T00:10:01.664544","MEAN_MOTION":15.27597765,"ECCENTRICITY":0.00013706,"INCLINATION":43.0018,"RA_OF_ASC_NODE":293.1311,"ARG_OF_PERICENTER":268.9979,"MEAN_ANOMALY":91.0716,"EPHEMERIS_TYPE":0,"CLASSIFICATION_TYPE":"U","NORAD_CAT_ID":62509,"ELEMENT_SET_NO":999,"REV_AT_EPOCH":6644,"BSTAR":0.0012858497,"MEAN_MOTION_DOT":0.0003531,"MEAN_MOTION_DDOT":0}]
